[{"OBJECT_NAME":"STARLINK-3998","OBJECT_ID":"2022-052N","EPOCH":"2026-03-09T21:14:54.233952","MEAN_MOTION":15.08834745,"ECCENTRICITY":0.00015005,"INCLINATION":53.2174,"RA_OF_ASC_NODE":283.2441,"ARG_OF_PERICENTER":85.6139,"MEAN_ANOMALY":274.5025,"EPHEMERIS_TYPE":0,"CLASSIFICATION_TYPE":"U","NORAD_CAT_ID":52610,"ELEMENT_SET_NO":999,"REV_AT_EPOCH":21081,"BSTAR":3.8239303e-5,"MEAN_MOTION_DOT":3.21e-6,"MEAN_MOTION_DDOT":0},{"OBJECT_NAME":"RAAF M1","OBJECT_ID":"2018-099X","EPOCH":"2026-03-09T15:51:10.230048","MEAN_MOTION":15.07065376,"ECCENTRICITY":0.00134971,"INCLINATION":97.4534,"RA_OF_ASC_NODE":114.8325,"ARG_OF_PERICENTER":21.6261,"MEAN_ANOMALY":338.5534,"EPHEMERIS_TYPE":0,"CLASSIFICATION_TYPE":"U","NORAD_CAT_ID":43779,"ELEMENT_SET_NO":999,"REV_AT_EPOCH":39714,"BSTAR":0.00026511092,"MEAN_MOTION_DOT":3.923e-5,"MEAN_MOTION_DDOT":0}]
